0 LEMUR 2 XIAOQING
1 41871U 16062C   20006.49080303  .00001189  00000-0  58503-4 0  9995
2 41871  51.6406 318.3077 0005973   2.9902 357.1111 15.26221011173326
0 LEMUR 2 XIAOQING
1 41871U 16062C   20006.88367822 +.00001088 +00000-0 +54661-4 0  9991
2 41871 051.6405 316.4302 0005964 004.2794 355.8235 15.26220968173387
0 LEMUR 2 XIAOQING
1 41871U 16062C   20007.27655225 +.00001224 +00000-0 +59841-4 0  9999
2 41871 051.6404 314.5529 0005974 005.6918 354.4127 15.26222539173448
0 LEMUR 2 XIAOQING
1 41871U 16062C   20008.12777864  .00001267  00000-0  61482-4 0  9999
2 41871  51.6402 310.4851 0005977   8.5622 351.5458 15.26224657173578
0 LEMUR 2 XIAOQING
1 41871U 16062C   20008.52065187 +.00001324 +00000-0 +63638-4 0  9990
2 41871 051.6401 308.6077 0005979 009.8180 350.2915 15.26225933173630
0 LEMUR 2 XIAOQING
1 41871U 16062C   20009.24091779  .00001520  00000-0  71084-4 0  9998
2 41871  51.6400 305.1656 0005979  12.1788 347.9334 15.26229085173747
0 LEMUR 2 XIAOQING
1 41871U 16062C   20009.50283228 +.00001554 +00000-0 +72376-4 0  9991
2 41871 051.6400 303.9138 0005997 013.0047 347.1086 15.26230147173787
0 LEMUR 2 XIAOQING
1 41871U 16062C   20010.41953183  .00001940  00000-0  87056-4 0  9997
2 41871  51.6385 299.5330 0005973  15.9065 344.2100 15.26233839173920
0 LEMUR 2 XIAOQING
1 41871U 16062C   20011.33622821 +.00002189 +00000-0 +96529-4 0  9992
2 41871 051.6385 295.1521 0005973 018.7692 341.3506 15.26238674174067
0 LEMUR 2 XIAOQING
1 41871U 16062C   20012.12196546  .00002345  00000-0  10243-3 0  9992
2 41871  51.6385 291.3972 0005971  21.2335 338.8890 15.26243113174180
0 LEMUR 2 XIAOQING
1 41871U 16062C   20012.38387756 +.00002251 +00000-0 +98860-4 0  9993
2 41871 051.6386 290.1454 0005980 022.0291 338.0944 15.26244159174221
0 LEMUR 2 XIAOQING
1 41871U 16062C   20013.16961214  .00002260  00000-0  99208-4 0  9994
2 41871  51.6386 286.3903 0005984  24.5264 335.5999 15.26248246174344
0 LEMUR 2 XIAOQING
1 41871U 16062C   20013.75891169 +.00002218 +00000-0 +97592-4 0  9997
2 41871 051.6402 283.5735 0006026 026.4587 333.6698 15.26251411174435
0 LEMUR 2 XIAOQING
1 41871U 16062C   20014.34821058  .00002208  00000-0  97206-4 0  9994
2 41871  51.6403 280.7572 0006048  28.3849 331.7458 15.26254156174522
0 LEMUR 2 XIAOQING
1 41871U 16062C   20015.33037294 +.00001937 +00000-0 +86885-4 0  9994
2 41871 051.6405 276.0633 0006073 031.5221 328.6121 15.26257445174670
0 LEMUR 2 XIAOQING
1 41871U 16062C   20015.98514642  .00001867  00000-0  84219-4 0  9993
2 41871  51.6407 272.9340 0006106  33.6358 326.5008 15.26260153174775
0 LEMUR 2 XIAOQING
1 41871U 16062C   20017.09825732  .00001934  00000-0  86758-4 0  9997
2 41871  51.6408 267.6142 0006153  37.1661 322.9743 15.26265969174940
0 LEMUR 2 XIAOQING
1 41871U 16062C   20017.16373438 +.00001904 +00000-0 +85599-4 0  9995
2 41871 051.6408 267.3013 0006155 037.3909 322.7497 15.26266107174953
0 LEMUR 2 XIAOQING
1 41871U 16062C   20017.29468848 +.00001876 +00000-0 +84569-4 0  9993
2 41871 051.6408 266.6754 0006160 037.8138 322.3273 15.26266552174976
0 LEMUR 2 XIAOQING
1 41871U 16062C   20018.14588862  .00001748  00000-0  79691-4 0  9995
2 41871  51.6409 262.6073 0006213  40.6976 319.4466 15.26269735175101
0 LEMUR 2 XIAOQING
1 41871U 16062C   20019.19351653  .00001706  00000-0  78085-4 0  9997
2 41871  51.6410 257.6004 0006277  44.0408 316.1069 15.26274245175261
0 LEMUR 2 XIAOQING
1 41871U 16062C   20019.25899325 +.00001902 +00000-0 +85502-4 0  9997
2 41871 051.6410 257.2875 0006278 044.2944 315.8536 15.26275548175274
0 LEMUR 2 XIAOQING
1 41871U 16062C   20020.24114180  .00001763  00000-0  80249-4 0  9995
2 41871  51.6411 252.5936 0006361  47.4098 312.7416 15.26279088175422
0 LEMUR 2 XIAOQING
1 41871U 16062C   20020.63400037 +.00001702 +00000-0 +77895-4 0  9993
2 41871 051.6412 250.7159 0006375 048.7190 311.4337 15.26280464175486
0 LEMUR 2 XIAOQING
1 41871U 16062C   20020.83042956 +.00001658 +00000-0 +76250-4 0  9991
2 41871 051.6413 249.7771 0006382 049.4607 310.6927 15.26281078175516
0 LEMUR 2 XIAOQING
1 41871U 16062C   20021.15781118 +.00001649 +00000-0 +75877-4 0  9991
2 41871 051.6413 248.2125 0006408 050.5157 309.6388 15.26282453175567
0 LEMUR 2 XIAOQING
1 41871U 16062C   20021.61614556  .00001461  00000-0  68759-4 0  9996
2 41871  51.6413 246.0218 0006428  51.9933 308.1625 15.26283236175631
0 LEMUR 2 XIAOQING
1 41871U 16062C   20021.61614556 +.00001461 +00000-0 +68759-4 0  9996
2 41871 051.6413 246.0218 0006428 051.9933 308.1625 15.26283236175631
0 LEMUR 2 XIAOQING
1 41871U 16062C   20022.59828829 +.00001334 +00000-0 +63915-4 0  9992
2 41871 051.6414 241.3277 0006476 055.2543 304.9045 15.26286482175784
0 LEMUR 2 XIAOQING
1 41871U 16062C   20022.86019260  .00001285  00000-0  62067-4 0  9995
2 41871  51.6415 240.0759 0006485  56.2481 303.9115 15.26287256175820
0 LEMUR 2 XIAOQING
1 41871U 16062C   20023.58042877 +.00001158 +00000-0 +57223-4 0  9992
2 41871 051.6415 236.6337 0006529 058.5082 301.6534 15.26289316175935
0 LEMUR 2 XIAOQING
1 41871U 16062C   20024.16971228  .00001035  00000-0  52545-4 0  9994
2 41871  51.6416 233.8173 0006569  60.4192 299.7441 15.26290781176024
0 LEMUR 2 XIAOQING
1 41871U 16062C   20024.56256776 +.00000941 +00000-0 +48977-4 0  9991
2 41871 051.6416 231.9397 0006594 061.6794 298.4849 15.26291571176082
0 LEMUR 2 XIAOQING
1 41871U 16062C   20025.28280173  .00000788  00000-0  43168-4 0  9995
2 41871  51.6415 228.4974 0006632  63.9879 296.1783 15.26293168176193
0 LEMUR 2 XIAOQING
1 41871U 16062C   20025.61018058 +.00000719 +00000-0 +40557-4 0  9996
2 41871 051.6415 226.9327 0006647 065.0765 295.0904 15.26293807176240
0 LEMUR 2 XIAOQING
1 41871U 16062C   20026.26493759 +.00000630 +00000-0 +37191-4 0  9995
2 41871 051.6414 223.8035 0006678 067.1558 293.0125 15.26295366176344
0 LEMUR 2 XIAOQING
1 41871U 16062C   20026.78874262  .00000577  00000-0  35174-4 0  9993
2 41871  51.6414 221.3000 0006700  68.8620 291.3074 15.26296633176424
0 LEMUR 2 XIAOQING
1 41871U 16062C   20026.91969397 +.00000464 +00000-0 +30882-4 0  9998
2 41871 051.6413 220.6742 0006708 069.2424 290.9273 15.26296374176443
0 LEMUR 2 XIAOQING
1 41871U 16062C   20027.24707216 +.00000486 +00000-0 +31693-4 0  9990
2 41871 051.6413 219.1096 0006719 070.2373 289.9330 15.26297324176498
0 LEMUR 2 XIAOQING
1 41871U 16062C   20027.90182770 +.00000420 +00000-0 +29208-4 0  9992
2 41871 051.6411 215.9802 0006739 072.3820 287.7894 15.26298649176590
0 LEMUR 2 XIAOQING
1 41871U 16062C   20027.96730326  .00000409  00000-0  28775-4 0  9999
2 41871  51.6411 215.6673 0006741  72.5893 287.5822 15.26298738176608
0 LEMUR 2 XIAOQING
1 41871U 16062C   20028.55658311 +.00000381 +00000-0 +27713-4 0  9998
2 41871 051.6409 212.8508 0006761 074.5186 285.6539 15.26299872176693
0 LEMUR 2 XIAOQING
1 41871U 16062C   20028.88396059 +.00000347 +00000-0 +26437-4 0  9996
2 41871 051.6408 211.2863 0006770 075.6043 284.5687 15.26300373176740
0 LEMUR 2 XIAOQING
1 41871U 16062C   20029.14586216  .00000365  00000-0  27112-4 0  9993
2 41871  51.6408 210.0346 0006780  76.4258 283.7476 15.26301119176781
0 LEMUR 2 XIAOQING
1 41871U 16062C   20029.21133721 +.00000483 +00000-0 +31575-4 0  9999
2 41871 051.6408 209.7216 0006781 076.6225 283.5509 15.26302005176790
0 LEMUR 2 XIAOQING
1 41871U 16062C   20029.86609147 +.00000415 +00000-0 +29005-4 0  9990
2 41871 051.6406 206.5923 0006799 078.8334 281.3409 15.26302884176893
0 LEMUR 2 XIAOQING
1 41871U 16062C   20030.19346822  .00000461  00000-0  30757-4 0  9993
2 41871  51.6405 205.0277 0006802  79.8706 280.3039 15.26303789176946
0 LEMUR 2 XIAOQING
1 41871U 16062C   20030.45536963 +.00000450 +00000-0 +30349-4 0  9994
2 41871 051.6404 203.7758 0006808 080.7686 279.4063 15.26304207176984
0 LEMUR 2 XIAOQING
1 41871U 16062C   20031.50297354  .00000653  00000-0  38050-4 0  9991
2 41871  51.6402 198.7689 0006835  84.3135 275.8623 15.26307475177148
0 LEMUR 2 SOKOLSKY
1 41872U 16062D   20001.45741638  .00000375  00000-0  27626-4 0  9990
2 41872  51.6852 346.9412 0003490  86.4301 273.7078 15.26005230172534
0 LEMUR 2 SOKOLSKY
1 41872U 16062D   20001.58839316 +.00000361 +00000-0 +27101-4 0  9998
2 41872 051.6852 346.3161 0003496 086.7179 273.4201 15.26005328172556
0 LEMUR 2 SOKOLSKY
1 41872U 16062D   20002.63620649  .00000637  00000-0  37663-4 0  9992
2 41872  51.6849 341.3155 0003505  90.4501 269.6880 15.26008145172710
0 LEMUR 2 SOKOLSKY
1 41872U 16062D   20003.88048273  .00000845  00000-0  45629-4 0  9999
2 41872  51.6845 335.3771 0003502  94.8462 265.2918 15.26011185172907
0 LEMUR 2 SOKOLSKY
1 41872U 16062D   20004.60085267 +.00000923 +00000-0 +48637-4 0  9993
2 41872 051.6843 331.9391 0003502 097.1681 262.9696 15.26012701173019
0 LEMUR 2 SOKOLSKY
1 41872U 16062D   20005.19024493  .00001053  00000-0  53603-4 0  9996
2 41872  51.6842 329.1261 0003492  99.3370 260.8005 15.26014602173103
0 LEMUR 2 SOKOLSKY
1 41872U 16062D   20005.58317265 +.00001149 +00000-0 +57290-4 0  9993
2 41872 051.6842 327.2509 0003480 100.7138 259.4233 15.26016073173160
0 LEMUR 2 SOKOLSKY
1 41872U 16062D   20006.30353818  .00001571  00000-0  73438-4 0  9999
2 41872  51.6840 323.8128 0003458 103.4441 256.6924 15.26020467173279
0 LEMUR 2 SOKOLSKY
1 41872U 16062D   20006.89292997 +.00001636 +00000-0 +75912-4 0  9994
2 41872 051.6822 320.9998 0003442 105.7740 254.3619 15.26020185173365
0 LEMUR 2 SOKOLSKY
1 41872U 16062D   20007.48231876  .00001791  00000-0  81858-4 0  9997
2 41872  51.6822 318.1869 0003413 107.8458 252.2894 15.26022933173453
0 LEMUR 2 SOKOLSKY
1 41872U 16062D   20007.87524442 +.00001671 +00000-0 +77237-4 0  9997
2 41872 051.6822 316.3114 0003398 109.3133 250.8214 15.26023956173518
0 LEMUR 2 SOKOLSKY
1 41872U 16062D   20008.39914413 +.00001630 +00000-0 +75679-4 0  9999
2 41872 051.6838 313.8111 0003374 110.9183 249.2158 15.26026728173598
0 LEMUR 2 SOKOLSKY
1 41872U 16062D   20009.83986454  .00001577  00000-0  73657-4 0  9997
2 41872  51.6847 306.9234 0003801 117.4532 242.6805 15.26031615173814
